[{"OBJECT_NAME":"STARLINK-1286","OBJECT_ID":"2020-019BK","EPOCH":"2026-03-09T13:00:10.455552","MEAN_MOTION":15.50880462,"ECCENTRICITY":0.00031881,"INCLINATION":53.048,"RA_OF_ASC_NODE":131.4333,"ARG_OF_PERICENTER":60.0425,"MEAN_ANOMALY":300.0899,"EPHEMERIS_TYPE":0,"CLASSIFICATION_TYPE":"U","NORAD_CAT_ID":45417,"ELEMENT_SET_NO":999,"REV_AT_EPOCH":33020,"BSTAR":0.00059203243,"MEAN_MOTION_DOT":0.00034513,"MEAN_MOTION_DDOT":0},{"OBJECT_NAME":"SITRO-AIS 37","OBJECT_ID":"2024-199AX","EPOCH":"2026-03-09T21:39:06.332832","MEAN_MOTION":15.50371967,"ECCENTRICITY":0.00074688,"INCLINATION":97.3098,"RA_OF_ASC_NODE":303.0596,"ARG_OF_PERICENTER":300.2136,"MEAN_ANOMALY":59.8376,"EPHEMERIS_TYPE":0,"CLASSIFICATION_TYPE":"U","NORAD_CAT_ID":61780,"ELEMENT_SET_NO":999,"REV_AT_EPOCH":11901,"BSTAR":0.0007407449,"MEAN_MOTION_DOT":0.00042171,"MEAN_MOTION_DDOT":0}]
